[{"OBJECT_NAME":"STARLINK-2128","OBJECT_ID":"2021-005BH","EPOCH":"2026-03-09T22:00:01.999584","MEAN_MOTION":15.60188382,"ECCENTRICITY":0.00044922,"INCLINATION":53.0533,"RA_OF_ASC_NODE":14.9701,"ARG_OF_PERICENTER":123.8508,"MEAN_ANOMALY":68.763,"EPHEMERIS_TYPE":0,"CLASSIFICATION_TYPE":"U","NORAD_CAT_ID":47404,"ELEMENT_SET_NO":999,"REV_AT_EPOCH":592,"BSTAR":0.0018166988,"MEAN_MOTION_DOT":0.00153048,"MEAN_MOTION_DDOT":0},{"OBJECT_NAME":"OBJECT B","OBJECT_ID":"2022-019B","EPOCH":"2026-03-09T23:23:33.758592","MEAN_MOTION":15.61615531,"ECCENTRICITY":0.00072913,"INCLINATION":97.3527,"RA_OF_ASC_NODE":156.333,"ARG_OF_PERICENTER":133.2993,"MEAN_ANOMALY":226.8874,"EPHEMERIS_TYPE":0,"CLASSIFICATION_TYPE":"U","NORAD_CAT_ID":51825,"ELEMENT_SET_NO":999,"REV_AT_EPOCH":22421,"BSTAR":0.00081639772,"MEAN_MOTION_DOT":0.00070599,"MEAN_MOTION_DDOT":0}]
